<?xml version="1.0" encoding="UTF-8"?>
<ndm xmlns:xsi="http://www.w3.org/2001/XMLSchema-instance" xsi:noNamespaceSchemaLocation="https://sanaregistry.org/r/ndmxml_unqualified/ndmxml-2.0.0-master-2.0.xsd">
<omm id="CCSDS_OMM_VERS" version="2.0">
<header><CREATION_DATE/><ORIGINATOR/></header><body><segment><metadata><OBJECT_NAME>ORBCOMM FM33</OBJECT_NAME><OBJECT_ID>1999-065D</OBJECT_ID><CENTER_NAME>EARTH</CENTER_NAME><REF_FRAME>TEME</REF_FRAME><TIME_SYSTEM>UTC</TIME_SYSTEM><MEAN_ELEMENT_THEORY>SGP4</MEAN_ELEMENT_THEORY></metadata><data><meanElements><EPOCH>2024-09-24T02:52:29.799840</EPOCH><MEAN_MOTION>14.38412511</MEAN_MOTION><ECCENTRICITY>.0007459</ECCENTRICITY><INCLINATION>45.0275</INCLINATION><RA_OF_ASC_NODE>182.6022</RA_OF_ASC_NODE><ARG_OF_PERICENTER>160.2653</ARG_OF_PERICENTER><MEAN_ANOMALY>199.8485</MEAN_ANOMALY></meanElements><tleParameters><EPHEMERIS_TYPE>0</EPHEMERIS_TYPE><CLASSIFICATION_TYPE>U</CLASSIFICATION_TYPE><NORAD_CAT_ID>25983</NORAD_CAT_ID><ELEMENT_SET_NO>999</ELEMENT_SET_NO><REV_AT_EPOCH>29773</REV_AT_EPOCH><BSTAR>.11394E-2</BSTAR><MEAN_MOTION_DOT>.3367E-4</MEAN_MOTION_DOT><MEAN_MOTION_DDOT>0</MEAN_MOTION_DDOT></tleParameters></data></segment></body></omm>
<omm id="CCSDS_OMM_VERS" version="2.0">
<header><CREATION_DATE/><ORIGINATOR/></header><body><segment><metadata><OBJECT_NAME>ORBCOMM FM36</OBJECT_NAME><OBJECT_ID>1999-065E</OBJECT_ID><CENTER_NAME>EARTH</CENTER_NAME><REF_FRAME>TEME</REF_FRAME><TIME_SYSTEM>UTC</TIME_SYSTEM><MEAN_ELEMENT_THEORY>SGP4</MEAN_ELEMENT_THEORY></metadata><data><meanElements><EPOCH>2024-09-24T08:33:51.053760</EPOCH><MEAN_MOTION>14.36405370</MEAN_MOTION><ECCENTRICITY>.0003549</ECCENTRICITY><INCLINATION>45.0383</INCLINATION><RA_OF_ASC_NODE>269.2812</RA_OF_ASC_NODE><ARG_OF_PERICENTER>3.2426</ARG_OF_PERICENTER><MEAN_ANOMALY>356.8445</MEAN_ANOMALY></meanElements><tleParameters><EPHEMERIS_TYPE>0</EPHEMERIS_TYPE><CLASSIFICATION_TYPE>U</CLASSIFICATION_TYPE><NORAD_CAT_ID>25984</NORAD_CAT_ID><ELEMENT_SET_NO>999</ELEMENT_SET_NO><REV_AT_EPOCH>29617</REV_AT_EPOCH><BSTAR>.10395E-2</BSTAR><MEAN_MOTION_DOT>.2932E-4</MEAN_MOTION_DOT><MEAN_MOTION_DDOT>0</MEAN_MOTION_DDOT></tleParameters></data></segment></body></omm>
<omm id="CCSDS_OMM_VERS" version="2.0">
<header><CREATION_DATE/><ORIGINATOR/></header><body><segment><metadata><OBJECT_NAME>ORBCOMM FM35</OBJECT_NAME><OBJECT_ID>1999-065F</OBJECT_ID><CENTER_NAME>EARTH</CENTER_NAME><REF_FRAME>TEME</REF_FRAME><TIME_SYSTEM>UTC</TIME_SYSTEM><MEAN_ELEMENT_THEORY>SGP4</MEAN_ELEMENT_THEORY></metadata><data><meanElements><EPOCH>2024-09-24T05:44:26.868768</EPOCH><MEAN_MOTION>14.35761390</MEAN_MOTION><ECCENTRICITY>.0001926</ECCENTRICITY><INCLINATION>45.0393</INCLINATION><RA_OF_ASC_NODE>273.0271</RA_OF_ASC_NODE><ARG_OF_PERICENTER>183.6867</ARG_OF_PERICENTER><MEAN_ANOMALY>176.3967</MEAN_ANOMALY></meanElements><tleParameters><EPHEMERIS_TYPE>0</EPHEMERIS_TYPE><CLASSIFICATION_TYPE>U</CLASSIFICATION_TYPE><NORAD_CAT_ID>25985</NORAD_CAT_ID><ELEMENT_SET_NO>999</ELEMENT_SET_NO><REV_AT_EPOCH>29654</REV_AT_EPOCH><BSTAR>.71657E-3</BSTAR><MEAN_MOTION_DOT>.195E-4</MEAN_MOTION_DOT><MEAN_MOTION_DDOT>0</MEAN_MOTION_DDOT></tleParameters></data></segment></body></omm>
<omm id="CCSDS_OMM_VERS" version="2.0">
<header><CREATION_DATE/><ORIGINATOR/></header><body><segment><metadata><OBJECT_NAME>ORBCOMM FM34</OBJECT_NAME><OBJECT_ID>1999-065G</OBJECT_ID><CENTER_NAME>EARTH</CENTER_NAME><REF_FRAME>TEME</REF_FRAME><TIME_SYSTEM>UTC</TIME_SYSTEM><MEAN_ELEMENT_THEORY>SGP4</MEAN_ELEMENT_THEORY></metadata><data><meanElements><EPOCH>2024-09-24T06:44:45.343968</EPOCH><MEAN_MOTION>14.35762723</MEAN_MOTION><ECCENTRICITY>.0001806</ECCENTRICITY><INCLINATION>45.0387</INCLINATION><RA_OF_ASC_NODE>273.3787</RA_OF_ASC_NODE><ARG_OF_PERICENTER>61.1572</ARG_OF_PERICENTER><MEAN_ANOMALY>298.9457</MEAN_ANOMALY></meanElements><tleParameters><EPHEMERIS_TYPE>0</EPHEMERIS_TYPE><CLASSIFICATION_TYPE>U</CLASSIFICATION_TYPE><NORAD_CAT_ID>25986</NORAD_CAT_ID><ELEMENT_SET_NO>999</ELEMENT_SET_NO><REV_AT_EPOCH>29666</REV_AT_EPOCH><BSTAR>.79068E-3</BSTAR><MEAN_MOTION_DOT>.2166E-4</MEAN_MOTION_DOT><MEAN_MOTION_DDOT>0</MEAN_MOTION_DDOT></tleParameters></data></segment></body></omm>
<omm id="CCSDS_OMM_VERS" version="2.0">
<header><CREATION_DATE/><ORIGINATOR/></header><body><segment><metadata><OBJECT_NAME>ORBCOMM FM38</OBJECT_NAME><OBJECT_ID>2008-031A</OBJECT_ID><CENTER_NAME>EARTH</CENTER_NAME><REF_FRAME>TEME</REF_FRAME><TIME_SYSTEM>UTC</TIME_SYSTEM><MEAN_ELEMENT_THEORY>SGP4</MEAN_ELEMENT_THEORY></metadata><data><meanElements><EPOCH>2024-09-24T14:16:58.855296</EPOCH><MEAN_MOTION>14.78754715</MEAN_MOTION><ECCENTRICITY>.0004983</ECCENTRICITY><INCLINATION>48.4393</INCLINATION><RA_OF_ASC_NODE>138.8419</RA_OF_ASC_NODE><ARG_OF_PERICENTER>334.1819</ARG_OF_PERICENTER><MEAN_ANOMALY>25.8846</MEAN_ANOMALY></meanElements><tleParameters><EPHEMERIS_TYPE>0</EPHEMERIS_TYPE><CLASSIFICATION_TYPE>U</CLASSIFICATION_TYPE><NORAD_CAT_ID>33060</NORAD_CAT_ID><ELEMENT_SET_NO>999</ELEMENT_SET_NO><REV_AT_EPOCH>87540</REV_AT_EPOCH><BSTAR>.60169E-3</BSTAR><MEAN_MOTION_DOT>.426E-4</MEAN_MOTION_DOT><MEAN_MOTION_DDOT>0</MEAN_MOTION_DDOT></tleParameters></data></segment></body></omm>
<omm id="CCSDS_OMM_VERS" version="2.0">
<header><CREATION_DATE/><ORIGINATOR/></header><body><segment><metadata><OBJECT_NAME>ORBCOMM FM41</OBJECT_NAME><OBJECT_ID>2008-031B</OBJECT_ID><CENTER_NAME>EARTH</CENTER_NAME><REF_FRAME>TEME</REF_FRAME><TIME_SYSTEM>UTC</TIME_SYSTEM><MEAN_ELEMENT_THEORY>SGP4</MEAN_ELEMENT_THEORY></metadata><data><meanElements><EPOCH>2024-09-24T10:16:42.065760</EPOCH><MEAN_MOTION>14.78458836</MEAN_MOTION><ECCENTRICITY>.0004272</ECCENTRICITY><INCLINATION>48.4430</INCLINATION><RA_OF_ASC_NODE>146.5849</RA_OF_ASC_NODE><ARG_OF_PERICENTER>318.1192</ARG_OF_PERICENTER><MEAN_ANOMALY>211.9796</MEAN_ANOMALY></meanElements><tleParameters><EPHEMERIS_TYPE>0</EPHEMERIS_TYPE><CLASSIFICATION_TYPE>U</CLASSIFICATION_TYPE><NORAD_CAT_ID>33061</NORAD_CAT_ID><ELEMENT_SET_NO>999</ELEMENT_SET_NO><REV_AT_EPOCH>87487</REV_AT_EPOCH><BSTAR>.53379E-3</BSTAR><MEAN_MOTION_DOT>.3728E-4</MEAN_MOTION_DOT><MEAN_MOTION_DDOT>0</MEAN_MOTION_DDOT></tleParameters></data></segment></body></omm>
<omm id="CCSDS_OMM_VERS" version="2.0">
<header><CREATION_DATE/><ORIGINATOR/></header><body><segment><metadata><OBJECT_NAME>ORBCOMM FM29</OBJECT_NAME><OBJECT_ID>2008-031C</OBJECT_ID><CENTER_NAME>EARTH</CENTER_NAME><REF_FRAME>TEME</REF_FRAME><TIME_SYSTEM>UTC</TIME_SYSTEM><MEAN_ELEMENT_THEORY>SGP4</MEAN_ELEMENT_THEORY></metadata><data><meanElements><EPOCH>2024-09-24T10:06:37.275264</EPOCH><MEAN_MOTION>14.78434712</MEAN_MOTION><ECCENTRICITY>.0006084</ECCENTRICITY><INCLINATION>48.4382</INCLINATION><RA_OF_ASC_NODE>154.6434</RA_OF_ASC_NODE><ARG_OF_PERICENTER>319.0552</ARG_OF_PERICENTER><MEAN_ANOMALY>211.2185</MEAN_ANOMALY></meanElements><tleParameters><EPHEMERIS_TYPE>0</EPHEMERIS_TYPE><CLASSIFICATION_TYPE>U</CLASSIFICATION_TYPE><NORAD_CAT_ID>33062</NORAD_CAT_ID><ELEMENT_SET_NO>999</ELEMENT_SET_NO><REV_AT_EPOCH>87478</REV_AT_EPOCH><BSTAR>.59841E-3</BSTAR><MEAN_MOTION_DOT>.4203E-4</MEAN_MOTION_DOT><MEAN_MOTION_DDOT>0</MEAN_MOTION_DDOT></tleParameters></data></segment></body></omm>
<omm id="CCSDS_OMM_VERS" version="2.0">
<header><CREATION_DATE/><ORIGINATOR/></header><body><segment><metadata><OBJECT_NAME>ORBCOMM FM39</OBJECT_NAME><OBJECT_ID>2008-031D</OBJECT_ID><CENTER_NAME>EARTH</CENTER_NAME><REF_FRAME>TEME</REF_FRAME><TIME_SYSTEM>UTC</TIME_SYSTEM><MEAN_ELEMENT_THEORY>SGP4</MEAN_ELEMENT_THEORY></metadata><data><meanElements><EPOCH>2024-09-24T10:52:58.877472</EPOCH><MEAN_MOTION>14.77289506</MEAN_MOTION><ECCENTRICITY>.0007248</ECCENTRICITY><INCLINATION>48.4394</INCLINATION><RA_OF_ASC_NODE>176.1110</RA_OF_ASC_NODE><ARG_OF_PERICENTER>295.2925</ARG_OF_PERICENTER><MEAN_ANOMALY>64.7238</MEAN_ANOMALY></meanElements><tleParameters><EPHEMERIS_TYPE>0</EPHEMERIS_TYPE><CLASSIFICATION_TYPE>U</CLASSIFICATION_TYPE><NORAD_CAT_ID>33063</NORAD_CAT_ID><ELEMENT_SET_NO>999</ELEMENT_SET_NO><REV_AT_EPOCH>87447</REV_AT_EPOCH><BSTAR>.60337E-3</BSTAR><MEAN_MOTION_DOT>.4123E-4</MEAN_MOTION_DOT><MEAN_MOTION_DDOT>0</MEAN_MOTION_DDOT></tleParameters></data></segment></body></omm>

</ndm>
