ORBCOMM FM33            
1 25983U 99065D   24268.11978935  .00003367  00000+0  11394-2 0  9999
2 25983  45.0275 182.6022 0007459 160.2653 199.8485 14.38412511297733
ORBCOMM FM36            
1 25984U 99065E   24268.35684090  .00002932  00000+0  10395-2 0  9999
2 25984  45.0383 269.2812 0003549   3.2426 356.8445 14.36405370296174
ORBCOMM FM35            
1 25985U 99065F   24268.23919987  .00001950  00000+0  71657-3 0  9991
2 25985  45.0393 273.0271 0001926 183.6867 176.3967 14.35761390296548
ORBCOMM FM34            
1 25986U 99065G   24268.28108037  .00002166  00000+0  79068-3 0  9997
2 25986  45.0387 273.3787 0001806  61.1572 298.9457 14.35762723296666
ORBCOMM FM38            
1 33060U 08031A   24268.59512564  .00004260  00000+0  60169-3 0  9999
2 33060  48.4393 138.8419 0004983 334.1819  25.8846 14.78754715875408
ORBCOMM FM41            
1 33061U 08031B   24268.42826465  .00003728  00000+0  53379-3 0  9993
2 33061  48.4430 146.5849 0004272 318.1192 211.9796 14.78458836874878
ORBCOMM FM29            
1 33062U 08031C   24268.42126476  .00004203  00000+0  59841-3 0  9998
2 33062  48.4382 154.6434 0006084 319.0552 211.2185 14.78434712874780
ORBCOMM FM39            
1 33063U 08031D   24268.45345923  .00004123  00000+0  60337-3 0  9995
2 33063  48.4394 176.1110 0007248 295.2925  64.7238 14.77289506874470
